COSMOS 2588             
1 64095U 25109A   26068.81179522  .00009169  00000+0  32611-3 0  9998
2 64095  72.9704  73.5401 0005019 308.6780  51.3966 15.29122656 44425
STARLINK-36145          
1 66983U 25288AA  26068.28360458  .00028845  00000+0  10532-2 0  9994
2 66983  43.0036  25.8836 0001682 255.2331 104.8334 15.27593375 15220
